QIANFAN-1               
1 60379U 24140A   25324.84356025  .00000027  00000+0  23096-4 0  9997
2 60379  88.9736 301.5493 0015603 280.4886  79.4506 13.50974007 64393
QIANFAN-2               
1 60380U 24140B   25324.79851547  .00000036  00000+0  37501-4 0  9998
2 60380  88.9722 301.3963 0010834 248.7743 111.2251 13.50972084 64441
QIANFAN-3               
1 60381U 24140C   25324.88078289  .00000046  00000+0  52395-4 0  9992
2 60381  88.9715 301.5221 0011929 263.3921  96.5872 13.50978159 64364
QIANFAN-4               
1 60382U 24140D   25324.78189868  .00000041  00000+0  45240-4 0  9994
2 60382  88.9740 301.4244 0011061 251.9229 108.0718 13.50978425 64474
QIANFAN-5               
1 60383U 24140E   25324.90543674  .00000051  00000+0  60065-4 0  9991
2 60383  88.9715 301.5450 0013261 276.1692  83.7949 13.50975750 64354
QIANFAN-6               
1 60384U 24140F   25324.77790472  .00000043  00000+0  48677-4 0  9993
2 60384  88.9741 301.2985 0011151 258.9220 101.0677 13.50976363 64538
QIANFAN-7               
1 60385U 24140G   25324.87627050  .00000458  00000+0  17990-3 0  9999
2 60385  88.9757 296.2911 0017085 108.8994 251.4055 14.27610986 67276
QIANFAN-8               
1 60386U 24140H   25324.78612624  .00000055  00000+0  66716-4 0  9995
2 60386  88.9743 301.5348 0014600 261.5054  98.4442 13.50974370 64383
